INMARSAT 4-F2           
1 28899U 05044A   26060.49731110 -.00000276  00000+0  00000+0 0  9993
2 28899   4.9537  43.8026 0002503 312.2837 125.7294  1.00272452 74447
GSAT-8                  
1 37605U 11022A   26060.45780629  .00000067  00000+0  00000+0 0  9993
2 37605   1.8525  83.1958 0007634 213.0759  82.8325  1.00270929 52134
LUCH-5A                 
1 37951U 11074B   26060.37539352 -.00000063  00000+0  00000+0 0  9997
2 37951   8.4794  75.3923 0004129 240.3052 145.6667  1.00274828 51979
SES-5                   
1 38652U 12036A   26060.36850338  .00000015  00000+0  00000+0 0  9990
2 38652   0.0618 308.4666 0001960  20.5838 327.7350  1.00271819 43379
GSAT-10                 
1 38779U 12051B   26060.39228598 -.00000183  00000+0  00000+0 0  9994
2 38779   0.0808 264.6175 0003905 175.2353 303.4964  1.00273330 49018
LUCH-5B                 
1 38977U 12061A   26060.30119891 -.00000151  00000+0  00000+0 0  9996
2 38977  10.2517  50.9348 0004220 223.3386 336.9449  1.00271836 48521
ASTRA 5B                
1 39617U 14011B   26060.30917227  .00000118  00000+0  00000+0 0  9996
2 39617   0.0977 295.8096 0004293  24.8388 333.2452  1.00269145 43581
LUCH-5V                 
1 39727U 14023A   26060.51213063 -.00000285  00000+0  00000+0 0  9997
2 39727   4.8670  70.8004 0002930 272.5610  95.0329  1.00272584 43285
GSAT-15                 
1 41028U 15065A   26060.51209998 -.00000276  00000+0  00000+0 0  9993
2 41028   0.0966 270.0443 0000759  71.3012  95.8011  1.00269657 37711
EUTELSAT 117 WEST B     
1 41589U 16038B   26060.36017102 -.00000030  00000+0  00000+0 0  9991
2 41589   0.0094 266.0601 0000048   1.8742 263.8885  1.00271438 35584
SES-15                  
1 42709U 17026A   26060.51768826  .00000042  00000+0  00000+0 0  9999
2 42709   0.0448 306.0602 0000700  20.5059 249.9271  1.00269675  6359
QZS-2 (MICHIBIKI-2)     
1 42738U 17028A   26059.38847589 -.00000151  00000+0  00000+0 0  9992
2 42738  39.5962 244.7382 0746218 270.2963 284.7801  1.00263058  6536
QZS-3 (MICHIBIKI-3)     
1 42917U 17048A   26060.46711506 -.00000367  00000+0  00000+0 0  9992
2 42917   0.0656 139.3123 0001538 199.1210 115.9626  1.00266891 31179
QZS-4 (MICHIBIKI-4)     
1 42965U 17062A   26052.57384556 -.00000296  00000+0  00000+0 0  9996
2 42965  40.1802 344.9639 0749564 269.6050 243.6917  1.00283220 30647
BEIDOU-3 G1             
1 43683U 18085A   26060.55367641 -.00000296  00000+0  00000+0 0  9993
2 43683   2.8027 100.4722 0001254  33.4453   4.8085  1.00269352 26983
EUTELSAT 5 WEST B       
1 44624U 19067A   26060.37486590 -.00000061  00000+0  00000+0 0  9995
2 44624   0.1009 306.7245 0003184  39.6161 302.7357  1.00271952 23358
BEIDOU-3 G2             
1 45344U 20017A   26060.17778502 -.00000157  00000+0  00000+0 0  9993
2 45344   2.6474  45.5064 0002681 298.6811 318.8170  1.00271121 22176
BEIDOU-3 G3             
1 45807U 20040A   26059.61329310 -.00000370  00000+0  00000+0 0  9996
2 45807   2.1795  67.0969 0004911 316.5656 105.9394  1.00264554 20981
GALAXY 30 (G-30)        
1 46114U 20056C   26060.40670370  .00000019  00000+0  00000+0 0  9998
2 46114   0.0191 126.8337 0002071 227.9721 185.7736  1.00271297 20210
QZS-1R (MICHIBIKI-1R)   
1 49336U 21096A   26059.40544135 -.00000260  00000+0  00000+0 0  9998
2 49336  37.2352  81.1903 0746892 269.6206  87.2096  1.00292063 15920
QZS-6 (MICHIBIKI-6)     
1 62876U 25023A   26060.50858034 -.00000251  00000+0  00000+0 0  9995
2 62876   0.0448 296.8308 0001948  33.2713 102.7935  1.00270649  3878
